{
  "type": "FeatureCollection",
  "features": [
    {
      "type": "Feature",
      "properties": {
        "norad_id": 35646,
        "name": "COSMOS 2251 DEB",
        "group": "cosmos-2251-debris",
        "lat": -67.63227752343217,
        "lon": -74.60953689457095,
        "alt_km": 1055.5195030941895,
        "timestamp": "2025-12-09T18:55:17.628106+00:00",
        "meta_object_name": "COSMOS 2251 DEB",
        "meta_object_id": "1993-036ANM",
        "meta_epoch": "2025-12-07T12:05:34.979712",
        "meta_mean_motion": 13.4080565,
        "meta_eccentricity": 0.04574175,
        "meta_inclination": 73.8717,
        "meta_ra_of_asc_node": 64.3362,
        "meta_arg_of_pericenter": 175.3742,
        "meta_mean_anomaly": 210.5375,
        "meta_ephemeris_type": 0,
        "meta_classification_type": "U",
        "meta_norad_cat_id": 35646,
        "meta_element_set_no": 999,
        "meta_rev_at_epoch": 81788,
        "meta_bstar": 0.0018659149,
        "meta_mean_motion_dot": 1.884e-05,
        "meta_mean_motion_ddot": 0,
        "tle_line1": "1 35646U 93036ANM 25341.50387708  .00001884  00000+0  18659-2 0  9999",
        "tle_line2": "2 35646  73.8717  64.3362 0457417 175.3742 210.5375 13.40805650817887"
      },
      "geometry": {
        "type": "Point",
        "coordinates": [
          -74.60953689457095,
          -67.63227752343217
        ]
      }
    },
    {
      "type": "Feature",
      "properties": {
        "norad_id": 35647,
        "name": "COSMOS 2251 DEB",
        "group": "cosmos-2251-debris",
        "lat": 24.616080727125816,
        "lon": -52.399736358135094,
        "alt_km": 714.3796515135264,
        "timestamp": "2025-12-09T18:55:17.628116+00:00",
        "meta_object_name": "COSMOS 2251 DEB",
        "meta_object_id": "1993-036ANN",
        "meta_epoch": "2025-12-06T04:19:05.390400",
        "meta_mean_motion": 14.4357388,
        "meta_eccentricity": 0.0045144,
        "meta_inclination": 74.0229,
        "meta_ra_of_asc_node": 306.7667,
        "meta_arg_of_pericenter": 47.5691,
        "meta_mean_anomaly": 312.927,
        "meta_ephemeris_type": 0,
        "meta_classification_type": "U",
        "meta_norad_cat_id": 35647,
        "meta_element_set_no": 999,
        "meta_rev_at_epoch": 67569,
        "meta_bstar": 0.0014529978,
        "meta_mean_motion_dot": 4.961e-05,
        "meta_mean_motion_ddot": 0,
        "tle_line1": "1 35647U 93036ANN 25340.17992350  .00004961  00000+0  14530-2 0  9990",
        "tle_line2": "2 35647  74.0229 306.7667 0045144  47.5691 312.9270 14.43573880675696"
      },
      "geometry": {
        "type": "Point",
        "coordinates": [
          -52.399736358135094,
          24.616080727125816
        ]
      }
    },
    {
      "type": "Feature",
      "properties": {
        "norad_id": 35650,
        "name": "COSMOS 2251 DEB",
        "group": "cosmos-2251-debris",
        "lat": 43.8197915629192,
        "lon": -171.2144085118376,
        "alt_km": 609.2427564319596,
        "timestamp": "2025-12-09T18:55:17.628126+00:00",
        "meta_object_name": "COSMOS 2251 DEB",
        "meta_object_id": "1993-036ANR",
        "meta_epoch": "2025-12-09T14:09:40.216320",
        "meta_mean_motion": 14.83490729,
        "meta_eccentricity": 0.00145371,
        "meta_inclination": 74.0458,
        "meta_ra_of_asc_node": 25.1117,
        "meta_arg_of_pericenter": 73.9447,
        "meta_mean_anomaly": 80.9093,
        "meta_ephemeris_type": 0,
        "meta_classification_type": "U",
        "meta_norad_cat_id": 35650,
        "meta_element_set_no": 999,
        "meta_rev_at_epoch": 87587,
        "meta_bstar": 0.0024035486,
        "meta_mean_motion_dot": 0.00019829,
        "meta_mean_motion_ddot": 0,
        "tle_line1": "1 35650U 93036ANR 25343.59004880  .00019829  00000+0  24035-2 0  9995",
        "tle_line2": "2 35650  74.0458  25.1117 0014537  73.9447  80.9093 14.83490729875871"
      },
      "geometry": {
        "type": "Point",
        "coordinates": [
          -171.2144085118376,
          43.8197915629192
        ]
      }
    },
    {
      "type": "Feature",
      "properties": {
        "norad_id": 35660,
        "name": "COSMOS 2251 DEB",
        "group": "cosmos-2251-debris",
        "lat": 63.00538604566848,
        "lon": 172.95154527898904,
        "alt_km": 729.468899757785,
        "timestamp": "2025-12-09T18:55:17.628136+00:00",
        "meta_object_name": "COSMOS 2251 DEB",
        "meta_object_id": "1993-036APB",
        "meta_epoch": "2025-12-07T17:00:01.687104",
        "meta_mean_motion": 14.49901725,
        "meta_eccentricity": 0.001834,
        "meta_inclination": 74.0394,
        "meta_ra_of_asc_node": 142.6736,
        "meta_arg_of_pericenter": 291.9525,
        "meta_mean_anomaly": 83.1689,
        "meta_ephemeris_type": 0,
        "meta_classification_type": "U",
        "meta_norad_cat_id": 35660,
        "meta_element_set_no": 999,
        "meta_rev_at_epoch": 65798,
        "meta_bstar": 0.00083521949,
        "meta_mean_motion_dot": 3.208e-05,
        "meta_mean_motion_ddot": 0,
        "tle_line1": "1 35660U 93036APB 25341.70835286  .00003208  00000+0  83522-3 0  9990",
        "tle_line2": "2 35660  74.0394 142.6736 0018340 291.9525  83.1689 14.49901725657989"
      },
      "geometry": {
        "type": "Point",
        "coordinates": [
          172.95154527898904,
          63.00538604566848
        ]
      }
    },
    {
      "type": "Feature",
      "properties": {
        "norad_id": 35661,
        "name": "COSMOS 2251 DEB",
        "group": "cosmos-2251-debris",
        "lat": 34.14912298063571,
        "lon": 96.82650170437682,
        "alt_km": 662.2528499021555,
        "timestamp": "2025-12-09T18:55:17.628146+00:00",
        "meta_object_name": "COSMOS 2251 DEB",
        "meta_object_id": "1993-036APC",
        "meta_epoch": "2025-12-08T13:41:02.115168",
        "meta_mean_motion": 14.86448029,
        "meta_eccentricity": 0.0088472,
        "meta_inclination": 74.013,
        "meta_ra_of_asc_node": 88.0398,
        "meta_arg_of_pericenter": 193.3855,
        "meta_mean_anomaly": 166.4978,
        "meta_ephemeris_type": 0,
        "meta_classification_type": "U",
        "meta_norad_cat_id": 35661,
        "meta_element_set_no": 999,
        "meta_rev_at_epoch": 87806,
        "meta_bstar": 0.001487,
        "meta_mean_motion_dot": 0.00014102,
        "meta_mean_motion_ddot": 0,
        "tle_line1": "1 35661U 93036APC 25342.57016337  .00014102  00000+0  14870-2 0  9999",
        "tle_line2": "2 35661  74.0130  88.0398 0088472 193.3855 166.4978 14.86448029878063"
      },
      "geometry": {
        "type": "Point",
        "coordinates": [
          96.82650170437682,
          34.14912298063571
        ]
      }
    },
    {
      "type": "Feature",
      "properties": {
        "norad_id": 35663,
        "name": "COSMOS 2251 DEB",
        "group": "cosmos-2251-debris",
        "lat": 35.91512615331634,
        "lon": -61.62095721582627,
        "alt_km": 669.8007983623838,
        "timestamp": "2025-12-09T18:55:17.628155+00:00",
        "meta_object_name": "COSMOS 2251 DEB",
        "meta_object_id": "1993-036APE",
        "meta_epoch": "2025-11-30T11:26:45.384288",
        "meta_mean_motion": 14.65332391,
        "meta_eccentricity": 0.00074535,
        "meta_inclination": 74.0171,
        "meta_ra_of_asc_node": 148.2949,
        "meta_arg_of_pericenter": 219.2944,
        "meta_mean_anomaly": 140.7685,
        "meta_ephemeris_type": 0,
        "meta_classification_type": "U",
        "meta_norad_cat_id": 35663,
        "meta_element_set_no": 999,
        "meta_rev_at_epoch": 73202,
        "meta_bstar": 0.0015821861,
        "meta_mean_motion_dot": 8.525e-05,
        "meta_mean_motion_ddot": 0,
        "tle_line1": "1 35663U 93036APE 25334.47691417  .00008525  00000+0  15822-2 0  9999",
        "tle_line2": "2 35663  74.0171 148.2949 0007453 219.2944 140.7685 14.65332391732024"
      },
      "geometry": {
        "type": "Point",
        "coordinates": [
          -61.62095721582627,
          35.91512615331634
        ]
      }
    },
    {
      "type": "Feature",
      "properties": {
        "norad_id": 35667,
        "name": "COSMOS 2251 DEB",
        "group": "cosmos-2251-debris",
        "lat": -66.17659599972812,
        "lon": 6.08696570759731,
        "alt_km": 690.1927203916066,
        "timestamp": "2025-12-09T18:55:17.628165+00:00",
        "meta_object_name": "COSMOS 2251 DEB",
        "meta_object_id": "1993-036APJ",
        "meta_epoch": "2025-12-08T03:56:45.664224",
        "meta_mean_motion": 14.59944075,
        "meta_eccentricity": 0.00200745,
        "meta_inclination": 74.0547,
        "meta_ra_of_asc_node": 148.8267,
        "meta_arg_of_pericenter": 210.1041,
        "meta_mean_anomaly": 149.8973,
        "meta_ephemeris_type": 0,
        "meta_classification_type": "U",
        "meta_norad_cat_id": 35667,
        "meta_element_set_no": 999,
        "meta_rev_at_epoch": 70736,
        "meta_bstar": 0.0014176974,
        "meta_mean_motion_dot": 6.791e-05,
        "meta_mean_motion_ddot": 0,
        "tle_line1": "1 35667U 93036APJ 25342.16441741  .00006791  00000+0  14177-2 0  9996",
        "tle_line2": "2 35667  74.0547 148.8267 0020074 210.1041 149.8973 14.59944075707366"
      },
      "geometry": {
        "type": "Point",
        "coordinates": [
          6.08696570759731,
          -66.17659599972812
        ]
      }
    }
  ]
}